KUIPER-00033            
1 63746U 25088Y   26176.70954078  .00000331  00000+0  72415-4 0  9990
2 63746  51.9049   7.9165 0000330 168.1411 191.9559 14.79933088 63619
KUIPER-00034            
1 63747U 25088Z   26177.15516748  .00000954  00000+0  15412-3 0  9993
2 63747  51.9028 328.4772 0000562 109.1756 250.9267 14.79928970 63881
KUIPER-00035            
1 63748U 25088AA  26177.19569094 -.00000575  00000+0 -46431-4 0  9997
2 63748  51.9010 353.2755 0001087  94.8698 265.2389 14.79963462 63595
KUIPER-00037            
1 63749U 25088AB  26177.18865657  .00001131  00000+0  17726-3 0  9992
2 63749  51.9026 352.1625 0000649 110.6773 249.4259 14.79935932 64391
KUIPER-00038            
1 63750U 25088AC  26176.84051322  .00001554  00000+0  23282-3 0  9995
2 63750  51.9024 339.8664 0000598 117.9011 242.2012 14.79938075 63538
STARLINK-11677 [DTC]    
1 63751U 25089A   26176.91891784  .00206955  00000+0  15739-2 0  9998
2 63751  43.0012   0.1914 0001830 296.8994  63.1687 15.70878737 67151
STARLINK-11702 [DTC]    
1 63752U 25089B   26176.57444917  .00199876  00000+0  15242-2 0  9995
2 63752  43.0015   1.8915 0003499 279.7798  80.2675 15.70832907 67100
STARLINK-11706 [DTC]    
1 63753U 25089C   26177.19436706  .00196983  00000+0  15015-2 0  9996
2 63753  43.0001 357.9313 0000584 328.5423  31.5409 15.70856489 67209
STARLINK-11662 [DTC]    
1 63754U 25089D   26176.90298675  .00266759  00000+0  19970-2 0  9999
2 63754  43.0011   0.0615 0002837 281.1589  78.8960 15.71069335 67205
STARLINK-11681 [DTC]    
1 63755U 25089E   26176.91360487  .00174532  00000+0  13298-2 0  9996
2 63755  43.0007   0.1458 0002630 263.8481  96.2087 15.70937345 67158
STARLINK-11688 [DTC]    
1 63756U 25089F   26176.57975591  .00231635  00000+0  17471-2 0  9992
2 63756  43.0002   1.9340 0002796 241.2970 118.7617 15.70998329 66998
STARLINK-11676 [DTC]    
1 63757U 25089G   26176.86581785  .00109011  00000+0  84093-3 0  9990
2 63757  43.0006 359.7635 0002260 274.3694  85.6915 15.70867521 67049
STARLINK-11705 [DTC]    
1 63758U 25089H   26176.90829360  .00270172  00000+0  20192-2 0  9996
2 63758  42.9993   0.1016 0003356 258.1488 101.9003 15.71096775 67104
STARLINK-11703 [DTC]    
1 63759U 25089J   26176.56914037  .00346058  00000+0  25654-2 0  9990
2 63759  43.0005   1.8471 0002778 248.7779 111.2792 15.71063947 67103
STARLINK-11701 [DTC]    
1 63760U 25089K   26176.55320968  .00319206  00000+0  23859-2 0  9995
2 63760  42.9996   1.7186 0001788 262.3840  97.6824 15.70949500 67105
STARLINK-11660 [DTC]    
1 63761U 25089L   26177.19967964  .00214381  00000+0  16271-2 0  9998
2 63761  43.0012 357.9703 0001595  23.5779 336.5162 15.70903816 67157
STARLINK-11699 [DTC]    
1 63762U 25089M   26176.92422213  .00149674  00000+0  11474-2 0  9994
2 63762  43.0002   0.2312 0002445 279.0994  80.9597 15.70873156 67158
STARLINK-11693 [DTC]    
1 63763U 25089N   26176.88797098  .00189661  00000+0  14464-2 0  9998
2 63763  43.0014 359.9355 0001610 270.1635  89.9048 15.70866998 67044
STARLINK-33760          
1 63764U 25089P   26177.21468837  .00022634  00000+0  82934-3 0  9997
2 63764  42.9997 152.4659 0001141 273.4558  86.6163 15.27586698 65559
STARLINK-33941          
1 63765U 25089Q   26177.21726030  .00017279  00000+0  63519-3 0  9997
2 63765  42.9985 152.4841 0000351 232.0623 128.0197 15.27620195 65544
STARLINK-33824          
1 63766U 25089R   26176.97241432  .00003708  00000+0  14419-3 0  9995
2 63766  43.0002 154.0882 0001092 272.4982  87.5744 15.27583657 65514
STARLINK-33808          
1 63767U 25089S   26177.00953170  .00023281  00000+0  85220-3 0  9996
2 63767  42.9982 153.5011 0001937 277.9082  82.1550 15.27605497 65521
STARLINK-33844          
1 63768U 25089T   26176.66332802  .00023596  00000+0  86338-3 0  9991
2 63768  43.0025 155.2085 0001395 285.2375  74.8322 15.27612747 65472
STARLINK-33907          
1 63769U 25089U   26177.21083162  .00028984  00000+0  10584-2 0  9991
2 63769  43.0005 152.4336 0001703 260.5331  99.5328 15.27587662 65501
STARLINK-33884          
1 63770U 25089V   26176.66460748  .00018458  00000+0  67807-3 0  9996
2 63770  43.0050 155.2174 0002272 290.5751  69.4857 15.27603863 65421
STARLINK-33841          
1 63771U 25089W   26177.19540993  .00020747  00000+0  76127-3 0  9996
2 63771  43.0002 152.3169 0001531 265.3955  94.6721 15.27581800 65509
BIOMASS                 
1 63772U 25090A   26176.41992450  .00000661  00000+0  12495-3 0  9993
2 63772  98.0741   3.6181 0001429  94.8977 265.2391 14.67536962 61896
STARLINK-33769          
1 63773U 25089X   26176.92358560  .00014748  00000+0  54441-3 0  9994
2 63773  42.9997 153.7164 0001303 252.2746 107.7963 15.27578843 65509
STARLINK-33914          
1 63774U 25089Y   26176.64967088  .00010571  00000+0  39293-3 0  9993
2 63774  42.9947 151.6016 0000284  38.7970 321.2902 15.27594057 65513
STARLINK-33932          
1 63775U 25091A   26177.22912194  .00018738  00000+0  68856-3 0  9990
2 63775  43.0001 159.4031 0001919 276.4713  83.5920 15.27587693 65541
STARLINK-33930          
1 63776U 25091B   26177.00227154  .00024723  00000+0  90461-3 0  9990
2 63776  42.9993 161.1489 0000453 257.2380 102.8421 15.27591431 65463
STARLINK-33911          
1 63777U 25091C   26177.22622831  .00022226  00000+0  81465-3 0  9996
2 63777  42.9993 152.4159 0000804 247.8685 112.2081 15.27584469 65587
STARLINK-33938          
1 63778U 25091D   26176.98426990  .00017174  00000+0  63153-3 0  9997
2 63778  42.9980 161.0067 0001158 267.0692  93.0027 15.27613062 65558
STARLINK-33881          
1 63779U 25091E   26177.00869184  .00014552  00000+0  53710-3 0  9993
2 63779  43.0016 161.1985 0001745 269.8681  90.1971 15.27590367 65469
STARLINK-33846          
1 63780U 25091F   26176.99841610  .00016170  00000+0  59570-3 0  9994
2 63780  42.9983 161.1163 0000596 261.7575  98.3209 15.27587587 65516
STARLINK-33883          
1 63781U 25091G   26176.99456338  .00030944  00000+0  11286-2 0  9990
2 63781  42.9999 161.0843 0001395 269.4084  90.6608 15.27600898 65469
STARLINK-33842          
1 63782U 25091H   26176.98044978  .00024394  00000+0  89310-3 0  9999
2 63782  42.9932 160.9739 0000957 254.0504 106.0242 15.27578303 65550
STARLINK-33892          
1 63783U 25091J   26176.65220359  .00022816  00000+0  83536-3 0  9994
2 63783  42.9959 162.8116 0002420 277.5616  82.4961 15.27606795 65418
STARLINK-33933          
1 63784U 25091K   26176.98011918  .00019565  00000+0  71881-3 0  9997
2 63784  42.9997 154.0238 0000756 261.9584  98.1182 15.27570260 65652
STARLINK-33923          
1 63786U 25091M   26176.98558057  .00017818  00000+0  65498-3 0  9995
2 63786  42.9983 161.0137 0000846 269.5435  90.5320 15.27602576 65414
STARLINK-33947          
1 63787U 25091N   26177.00741027  .00022950  00000+0  84025-3 0  9991
2 63787  43.0060 161.1878 0002593 271.8557  88.1997 15.27605152 65469
STARLINK-33882          
1 63788U 25091P   26176.65093334  .00013872  00000+0  51263-3 0  9994
2 63788  42.9956 162.7987 0001195  71.8177 288.2804 15.27583304 65401
STARLINK-33875          
1 63789U 25091Q   26177.22783580  .00018121  00000+0  66619-3 0  9991
2 63789  43.0040 159.3914 0002174 276.5229  83.5375 15.27589680 65503
STARLINK-33869          
1 63790U 25091R   26176.95986531  .00025549  00000+0  93423-3 0  9998
2 63790  42.9995 160.8157 0002846 275.9431  84.1096 15.27595684 65410
STARLINK-33935          
1 63791U 25091S   26177.00355610  .00020843  00000+0  76463-3 0  9991
2 63791  42.9957 161.1574 0000558 272.6619  87.4169 15.27587571 65576
STARLINK-33916          
1 63792U 25091T   26176.99969867  .00014411  00000+0  53191-3 0  9991
2 63792  42.9954 161.1233 0000790 263.8693  96.2069 15.27595922 65462
STARLINK-33925          
1 63793U 25091U   26177.22526375  .00021384  00000+0  78376-3 0  9991
2 63793  43.0019 159.3724 0001495 274.1165  85.9516 15.27604174 65612
STARLINK-33870          
1 63794U 25091V   26177.21884006  .00015605  00000+0  57514-3 0  9999
2 63794  42.9983 159.3218 0000294 229.0691 131.0136 15.27593884 65502
STARLINK-33867          
1 63795U 25091W   26176.99198957  .00023277  00000+0  85200-3 0  9994
2 63795  43.0015 161.0602 0002043 260.4527  99.6094 15.27607555 65467
STARLINK-33918          
1 63796U 25091X   26176.66634103  .00014396  00000+0  53134-3 0  9990
2 63796  42.9991 162.9185 0001849 272.8324  87.2316 15.27599100 65466
STARLINK-33712          
1 63797U 25091Y   26176.66072807  .00023738  00000+0  86870-3 0  9991
2 63797  43.0000 166.3984 0001990 267.4499  92.6125 15.27603904 65371
STARLINK-33827          
1 63798U 25091Z   26176.98170951  .00012319  00000+0  45624-3 0  9991
2 63798  42.9956 160.9803 0000347 222.5555 137.5270 15.27594226 65466
STARLINK-33899          
1 63799U 25091AA  26176.64706693  .00023239  00000+0  85070-3 0  9995
2 63799  42.9955 162.7685 0001928 267.5582  92.5048 15.27604447 65526
STARLINK-33900          
1 63800U 25091AB  26176.25089365  .00022459  00000+0  82255-3 0  9990
2 63800  42.9979 164.9533 0000426 232.2039 127.8774 15.27605064 65466
STARLINK-33975          
1 63802U 25091AC  26177.21756434  .00017097  00000+0  62872-3 0  9992
2 63802  43.0012 159.3097 0001941 271.8873  88.1756 15.27613359 65611
STARLINK-33951          
1 63803U 25091AD  26177.22269772  .00015966  00000+0  58831-3 0  9991
2 63803  43.0001 159.3490 0001369 275.5038  84.5657 15.27588850 65555
STARLINK-33909          
1 63804U 25092A   26176.73347845  .00032716  00000+0  11918-2 0  9992
2 63804  43.0010 282.8020 0001510 271.0177  89.0502 15.27617577 65132
STARLINK-34029          
1 63805U 25092B   26176.66295191  .00035636  00000+0  12969-2 0  9992
2 63805  43.0011 283.1271 0001534 270.8848  89.1828 15.27613707 65126
STARLINK-34102          
1 63806U 25092C   26176.79243727  .00018245  00000+0  67026-3 0  9997
2 63806  42.9998 282.3805 0001330 272.7170  87.3529 15.27610959 65197
